NORAD_CAT_ID,OBJECT_NAME,OBJECT_TYPE,EPOCH,MEAN_MOTION,ECCENTRICITY,INCLINATION,RA_OF_ASC_NODE,ARG_OF_PERICENTER,MEAN_ANOMALY,BSTAR,MEAN_MOTION_DOT,MEAN_MOTION_DDOT,TLE_LINE0,TLE_LINE1,TLE_LINE2,SEMIMAJOR_AXIS,PERIOD,APOGEE,PERIGEE,DECAYED
52650.0,STARLINK-3891,PAYLOAD,2024-07-03 03:40:29,15.08849345,0.0001205,53.2161,127.9889,88.2269,271.8861,2.1475e-05,5.4e-07,0.0,0 STARLINK-3891,1 52650U 22052BE  24185.15311366  .00000054  00000-0  21475-4 0  9997,2 52650  53.2161 127.9889 0001205  88.2269 271.8861 15.08849345118870,6917.852,95.437,540.55,538.883,0.0
52650.0,STARLINK-3891,PAYLOAD,2024-07-03 05:15:51,15.08855051,8.59e-05,53.214,127.6876,100.9301,259.1787,6.9008e-05,8.11e-06,0.0,0 STARLINK-3891,1 52650U 22052BE  24185.21934570  .00000811  00000-0  69008-4 0  9997,2 52650  53.2140 127.6876 0000859 100.9301 259.1787 15.08855051118881,6917.834,95.437,540.294,539.105,0.0
52650.0,STARLINK-3891,PAYLOAD,2024-07-03 13:12:48,15.0884278,0.0001313,53.2149,126.2009,78.8106,281.3033,-4.9458e-07,-2.96e-06,0.0,0 STARLINK-3891,1 52650U 22052BE  24185.55055599 -.00000296  00000-0 -49458-6 0  9997,2 52650  53.2149 126.2009 0001313  78.8106 281.3033 15.08842780118937,6917.872,95.437,540.645,538.829,0.0
52650.0,STARLINK-3891,PAYLOAD,2024-07-04 13:03:35,15.08835898,0.0001361,53.2152,121.7425,81.6911,278.4235,4.3946e-05,4.11e-06,0.0,0 STARLINK-3891,1 52650U 22052BE  24186.54416145  .00000411  00000-0  43946-4 0  9996,2 52650  53.2152 121.7425 0001361  81.6911 278.4235 15.08835898118711,6917.893,95.438,540.699,538.816,0.0
52650.0,STARLINK-3891,PAYLOAD,2024-07-05 04:57:26,15.08848542,0.0001174,53.2146,118.7688,101.3665,258.7459,3.6282e-05,2.9e-06,0.0,0 STARLINK-3891,1 52650U 22052BE  24187.20655335  .00000290  00000-0  36282-4 0  9996,2 52650  53.2146 118.7688 0001174 101.3665 258.7459 15.08848542119180,6917.854,95.437,540.531,538.907,0.0
52650.0,STARLINK-3891,PAYLOAD,2024-07-05 12:54:22,15.08839171,0.0001475,53.2166,117.2816,116.6453,243.4691,6.3161e-05,7.17e-06,0.0,0 STARLINK-3891,1 52650U 22052BE  24187.53775860  .00000717  00000-0  63161-4 0  9998,2 52650  53.2166 117.2816 0001475 116.6453 243.4691 15.08839171118868,6917.883,95.438,540.768,538.728,0.0
52650.0,STARLINK-3891,PAYLOAD,2024-07-05 20:51:18,15.0883895,0.0001562,53.2152,115.7962,90.9632,269.1539,6.423e-05,7.34e-06,0.0,0 STARLINK-3891,1 52650U 22052BE  24187.86895982  .00000734  00000-0  64230-4 0  9999,2 52650  53.2152 115.7962 0001562  90.9632 269.1539 15.08838950119285,6917.884,95.438,540.829,538.668,0.0
52650.0,STARLINK-3891,PAYLOAD,2024-07-06 01:37:26,15.08851676,0.0001464,53.2161,114.9026,104.243,255.8725,7.1411e-05,8.49e-06,0.0,0 STARLINK-3891,1 52650U 22052BE  24188.06767091  .00000849  00000-0  71411-4 0  9997,2 52650  53.2161 114.9026 0001464 104.2430 255.8725 15.08851676119316,6917.845,95.437,540.722,538.697,0.0
52650.0,STARLINK-3891,PAYLOAD,2024-07-06 12:45:09,15.08845684,0.000119,53.2161,112.8257,79.2483,280.8643,8.986e-06,-1.45e-06,0.0,0 STARLINK-3891,1 52650U 22052BE  24188.53135496 -.00000145  00000-0  89860-5 0  9995,2 52650  53.2161 112.8257 0001190  79.2483 280.8643 15.08845684119380,6917.863,95.437,540.551,538.905,0.0
52650.0,STARLINK-3891,PAYLOAD,2024-07-06 19:06:42,15.08830336,0.0001209,53.2157,111.6367,79.488,280.6248,3.514e-05,2.71e-06,0.0,0 STARLINK-3891,1 52650U 22052BE  24188.79632509  .00000271  00000-0  35140-4 0  9990,2 52650  53.2157 111.6367 0001209  79.4880 280.6248 15.08830336119420,6917.91,95.438,540.611,538.939,0.0
52650.0,STARLINK-3891,PAYLOAD,2024-07-06 22:17:28,15.08832075,0.0001246,53.2162,111.0391,100.3814,259.7318,1.7927e-05,-3e-08,0.0,0 STARLINK-3891,1 52650U 22052BE  24188.92880457 -.00000003  00000-0  17927-4 0  9999,2 52650  53.2162 111.0391 0001246 100.3814 259.7318 15.08832075119077,6917.905,95.438,540.632,538.908,0.0
52650.0,STARLINK-3891,PAYLOAD,2024-07-07 01:28:14,15.08832281,0.0001165,53.2167,110.4461,84.0291,276.0834,4.7754e-05,4.72e-06,0.0,0 STARLINK-3891,1 52650U 22052BE  24189.06128415  .00000472  00000-0  47754-4 0  9994,2 52650  53.2167 110.4461 0001165  84.0291 276.0834 15.08832281119096,6917.904,95.438,540.575,538.963,0.0
52650.0,STARLINK-3891,PAYLOAD,2024-07-07 22:08:15,15.08839633,0.0001425,53.2167,106.5796,91.3646,268.7509,8.2634e-05,1.027e-05,0.0,0 STARLINK-3891,1 52650U 22052BE  24189.92239947  .00001027  00000-0  82634-4 0  9995,2 52650  53.2167 106.5796 0001425  91.3646 268.7509 15.08839633119597,6917.882,95.438,540.732,538.761,0.0
52650.0,STARLINK-3891,PAYLOAD,2024-07-08 18:48:16,15.08834383,0.000142,53.2173,102.7142,89.2179,270.8976,8.894e-05,1.128e-05,0.0,0 STARLINK-3891,1 52650U 22052BE  24190.78352366  .00001128  00000-0  88940-4 0  9990,2 52650  53.2173 102.7142 0001420  89.2179 270.8976 15.08834383119723,6917.898,95.438,540.745,538.78,0.0
52650.0,STARLINK-3891,PAYLOAD,2024-07-08 21:59:02,15.0883328,0.0001384,53.2173,102.1196,88.9634,271.1516,8.1085e-05,1.003e-05,0.0,0 STARLINK-3891,1 52650U 22052BE  24190.91600529  .00001003  00000-0  81085-4 0  9997,2 52650  53.2173 102.1196 0001384  88.9634 271.1516 15.08833280119377,6917.901,95.438,540.723,538.808,0.0
52650.0,STARLINK-3891,PAYLOAD,2024-07-09 10:42:08,15.08833937,0.0001191,53.2156,99.7374,71.1714,288.9407,1.4076e-05,-6.4e-07,0.0,0 STARLINK-3891,1 52650U 22052BE  24191.44592780 -.00000064  00000-0  14076-4 0  9998,2 52650  53.2156  99.7374 0001191  71.1714 288.9407 15.08833937119459,6917.899,95.438,540.588,538.94,0.0
52650.0,STARLINK-3891,PAYLOAD,2024-07-09 21:49:50,15.08833492,0.0001191,53.2161,97.6567,76.5417,283.5708,-0.00010883,-2.019e-05,0.0,0 STARLINK-3891,1 52650U 22052BE  24191.90961370 -.00002019  00000-0 -10883-3 0  9998,2 52650  53.2161  97.6567 0001191  76.5417 283.5708 15.08833492119524,6917.9,95.438,540.589,538.941,0.0
52650.0,STARLINK-3891,PAYLOAD,2024-07-10 01:00:36,15.0883481,0.0001255,53.2163,97.0647,90.1686,269.945,9.494e-06,-1.37e-06,0.0,0 STARLINK-3891,1 52650U 22052BE  24192.04208989 -.00000137  00000-0  94940-5 0  9990,2 52650  53.2163  97.0647 0001255  90.1686 269.9450 15.08834810119910,6917.896,95.438,540.629,538.893,0.0
52650.0,STARLINK-3891,PAYLOAD,2024-07-10 10:32:55,15.08838982,0.0001311,53.2169,95.2803,86.018,274.0962,6.7843e-05,7.92e-06,0.0,0 STARLINK-3891,1 52650U 22052BE  24192.43952665  .00000792  00000-0  67843-4 0  9997,2 52650  53.2169  95.2803 0001311  86.0180 274.0962 15.08838982119601,6917.884,95.438,540.655,538.842,0.0
52650.0,STARLINK-3891,PAYLOAD,2024-07-10 21:40:37,15.088366,0.0001361,53.2175,93.1988,86.686,273.4287,5.1765e-05,5.36e-06,0.0,0 STARLINK-3891,1 52650U 22052BE  24192.90320983  .00000536  00000-0  51765-4 0  9993,2 52650  53.2175  93.1988 0001361  86.6860 273.4287 15.08836600119670,6917.891,95.438,540.697,538.814,0.0
52650.0,STARLINK-3891,PAYLOAD,2024-07-11 02:26:46,15.08843981,0.0001432,53.2183,92.3075,89.6202,270.4954,0.00013722,1.897e-05,0.0,0 STARLINK-3891,1 52650U 22052BE  24193.10192343  .00001897  00000-0  13722-3 0  9994,2 52650  53.2183  92.3075 0001432  89.6202 270.4954 15.08843981120073,6917.868,95.437,540.724,538.743,0.0
52650.0,STARLINK-3891,PAYLOAD,2024-07-12 00:42:10,15.08841999,0.0001251,53.2172,88.1426,98.7552,261.3582,5.0029e-05,5.08e-06,0.0,0 STARLINK-3891,1 52650U 22052BE  24194.02928679  .00000508  00000-0  50029-4 0  9995,2 52650  53.2172  88.1426 0001251  98.7552 261.3582 15.08841999120211,6917.874,95.437,540.605,538.874,0.0
52650.0,STARLINK-3891,PAYLOAD,2024-07-12 16:36:02,15.08812144,0.0001407,53.2177,85.169,100.8825,259.2325,0.00039914,6.065e-05,0.0,0 STARLINK-3891,1 52650U 22052BE  24194.69169717  .00006065  00000-0  39914-3 0  9991,2 52650  53.2177  85.1690 0001407 100.8825 259.2325 15.08812144120319,6917.966,95.439,540.804,538.857,0.0
52650.0,STARLINK-3891,PAYLOAD,2024-07-12 22:57:35,15.08817274,0.0001196,53.2178,83.9814,102.4633,257.6493,0.00037552,5.69e-05,0.0,0 STARLINK-3891,1 52650U 22052BE  24194.95665615  .00005690  00000-0  37552-3 0  9997,2 52650  53.2178  83.9814 0001196 102.4633 257.6493 15.08817274119982,6917.95,95.439,540.642,538.987,0.0
52650.0,STARLINK-3891,PAYLOAD,2024-07-13 02:08:19,15.08852936,0.0001329,53.2174,83.3845,93.9968,266.1176,5.3183e-05,5.59e-06,0.0,0 STARLINK-3891,1 52650U 22052BE  24195.08911954  .00000559  00000-0  53183-4 0  9990,2 52650  53.2174  83.3845 0001329  93.9968 266.1176 15.08852936120371,6917.841,95.437,540.625,538.786,0.0
52650.0,STARLINK-3891,PAYLOAD,2024-07-13 10:05:16,15.08837777,0.00019,53.2179,81.8993,83.6608,276.4601,-3.6816e-05,-8.74e-06,0.0,0 STARLINK-3891,1 52650U 22052BE  24195.42033339 -.00000874  00000-0 -36816-4 0  9996,2 52650  53.2179  81.8993 0001900  83.6608 276.4601 15.08837777120424,6917.887,95.438,541.067,538.438,0.0
52650.0,STARLINK-3891,PAYLOAD,2024-07-13 22:48:21,15.08835038,0.0001048,53.2178,79.5203,86.3161,273.7951,2.4358e-05,1e-06,0.0,0 STARLINK-3891,1 52650U 22052BE  24195.95025150  .00000100  00000-0  24358-4 0  9994,2 52650  53.2178  79.5203 0001048  86.3161 273.7951 15.08835038120132,6917.896,95.438,540.486,539.036,0.0
52650.0,STARLINK-3891,PAYLOAD,2024-07-14 01:59:07,15.08841364,0.0001336,53.218,78.9215,107.1654,252.9484,0.00010075,1.316e-05,0.0,0 STARLINK-3891,1 52650U 22052BE  24196.08272459  .00001316  00000-0  10075-3 0  9995,2 52650  53.2180  78.9215 0001336 107.1654 252.9484 15.08841364120522,6917.876,95.437,540.665,538.817,0.0
52650.0,STARLINK-3891,PAYLOAD,2024-07-14 22:39:07,15.08850291,0.0001451,53.218,75.0566,96.355,263.7608,4.9723e-05,5.04e-06,0.0,0 STARLINK-3891,1 52650U 22052BE  24196.94384067  .00000504  00000-0  49723-4 0  9990,2 52650  53.2180  75.0566 0001451  96.3550 263.7608 15.08850291120281,6917.849,95.437,540.718,538.71,0.0
52650.0,STARLINK-3891,PAYLOAD,2024-07-15 01:49:53,15.08854827,0.0001329,53.2174,74.4613,98.0319,262.0824,8.6897e-05,1.096e-05,0.0,0 STARLINK-3891,1 52650U 22052BE  24197.07631563  .00001096  00000-0  86897-4 0  9991,2 52650  53.2174  74.4613 0001329  98.0319 262.0824 15.08854827120670,6917.835,95.437,540.619,538.781,0.0
